{"type": "FeatureCollection", "features": [ {"type": "Feature", "properties": {"norad_id": 30703, "name": "FENGYUN 1C DEB", "group": "fengyun-1c-debris", "lat": 54.57805842939842, "lon": 179.0305948876712, "alt_km": 874.2878447425364, "timestamp": "2025-12-26T11:25:45.472351+00:00", "meta": {"OBJECT_NAME": "FENGYUN 1C DEB", "OBJECT_ID": "1999-025ARM", "EPOCH": "2025-12-24T21:45:21.276000", "MEAN_MOTION": 14.19378421, "ECCENTRICITY": 0.0117041, "INCLINATION": 99.1436, "RA_OF_ASC_NODE": 344.3229, "ARG_OF_PERICENTER": 257.422, "MEAN_ANOMALY": 131.4605, "EPHEMERIS_TYPE": 0, "CLASSIFICATION_TYPE": "U", "NORAD_CAT_ID": 30703, "ELEMENT_SET_NO": 999, "REV_AT_EPOCH": 96713, "BSTAR": 0.0010103, "MEAN_MOTION_DOT": 2.226e-05, "MEAN_MOTION_DDOT": 0}, "tle": {"line1": "1 30703U 99025ARM 25358.90649625  .00002226  00000+0  10103-2 0  9990", "line2": "2 30703  99.1436 344.3229 0117041 257.4220 131.4605 14.19378421967136"}}, "geometry": {"type": "Point", "coordinates": [179.0305948876712, 54.57805842939842]}}, {"type": "Feature", "properties": {"norad_id": 30704, "name": "FENGYUN 1C DEB", "group": "fengyun-1c-debris", "lat": -65.79209073311164, "lon": 19.18271309806188, "alt_km": 931.1525768122219, "timestamp": "2025-12-26T11:25:45.472361+00:00", "meta": {"OBJECT_NAME": "FENGYUN 1C DEB", "OBJECT_ID": "1999-025ARN", "EPOCH": "2025-12-25T00:05:47.517216", "MEAN_MOTION": 14.02064328, "ECCENTRICITY": 0.00820672, "INCLINATION": 98.8739, "RA_OF_ASC_NODE": 357.4158, "ARG_OF_PERICENTER": 65.8525, "MEAN_ANOMALY": 0.8133, "EPHEMERIS_TYPE": 0, "CLASSIFICATION_TYPE": "U", "NORAD_CAT_ID": 30704, "ELEMENT_SET_NO": 999, "REV_AT_EPOCH": 96283, "BSTAR": 0.00032222476, "MEAN_MOTION_DOT": 4.64e-06, "MEAN_MOTION_DDOT": 0}, "tle": {"line1": "1 30704U 99025ARN 25359.00402219  .00000464  00000+0  32222-3 0  9998", "line2": "2 30704  98.8739 357.4158 0082067  65.8525   0.8133 14.02064328962830"}}, "geometry": {"type": "Point", "coordinates": [19.18271309806188, -65.79209073311164]}}, {"type": "Feature", "properties": {"norad_id": 30705, "name": "FENGYUN 1C DEB", "group": "fengyun-1c-debris", "lat": 49.81882200025117, "lon": 93.78178636659261, "alt_km": 1094.2027019115458, "timestamp": "2025-12-26T11:25:45.472370+00:00", "meta": {"OBJECT_NAME": "FENGYUN 1C DEB", "OBJECT_ID": "1999-025ARP", "EPOCH": "2025-12-25T14:24:28.130976", "MEAN_MOTION": 13.81391745, "ECCENTRICITY": 0.0201343, "INCLINATION": 102.1796, "RA_OF_ASC_NODE": 107.4717, "ARG_OF_PERICENTER": 251.8201, "MEAN_ANOMALY": 125.1559, "EPHEMERIS_TYPE": 0, "CLASSIFICATION_TYPE": "U", "NORAD_CAT_ID": 30705, "ELEMENT_SET_NO": 999, "REV_AT_EPOCH": 94187, "BSTAR": 0.0026504, "MEAN_MOTION_DOT": 3.22e-05, "MEAN_MOTION_DDOT": 0}, "tle": {"line1": "1 30705U 99025ARP 25359.60032559  .00003220  00000+0  26504-2 0  9999", "line2": "2 30705 102.1796 107.4717 0201343 251.8201 125.1559 13.81391745941871"}}, "geometry": {"type": "Point", "coordinates": [93.78178636659261, 49.81882200025117]}}, {"type": "Feature", "properties": {"norad_id": 30706, "name": "FENGYUN 1C DEB", "group": "fengyun-1c-debris", "lat": 50.845657576700034, "lon": -115.74173448439572, "alt_km": 783.234483864012, "timestamp": "2025-12-26T11:25:45.472382+00:00", "meta": {"OBJECT_NAME": "FENGYUN 1C DEB", "OBJECT_ID": "1999-025ARQ", "EPOCH": "2025-12-24T23:50:11.261760", "MEAN_MOTION": 14.26471945, "ECCENTRICITY": 0.00271977, "INCLINATION": 99.0658, "RA_OF_ASC_NODE": 254.0317, "ARG_OF_PERICENTER": 93.3629, "MEAN_ANOMALY": 267.0662, "EPHEMERIS_TYPE": 0, "CLASSIFICATION_TYPE": "U", "NORAD_CAT_ID": 30706, "ELEMENT_SET_NO": 999, "REV_AT_EPOCH": 97802, "BSTAR": 0.00084562652, "MEAN_MOTION_DOT": 1.998e-05, "MEAN_MOTION_DDOT": 0}, "tle": {"line1": "1 30706U 99025ARQ 25358.99318590  .00001998  00000+0  84563-3 0  9993", "line2": "2 30706  99.0658 254.0317 0027197  93.3629 267.0662 14.26471945978023"}}, "geometry": {"type": "Point", "coordinates": [-115.74173448439572, 50.845657576700034]}}, {"type": "Feature", "properties": {"norad_id": 30707, "name": "FENGYUN 1C DEB", "group": "fengyun-1c-debris", "lat": -61.51430923726327, "lon": 73.67637110637943, "alt_km": 810.6344918506047, "timestamp": "2025-12-26T11:25:45.472391+00:00", "meta": {"OBJECT_NAME": "FENGYUN 1C DEB", "OBJECT_ID": "1999-025ARR", "EPOCH": "2025-12-23T20:03:55.417248", "MEAN_MOTION": 14.26757696, "ECCENTRICITY": 0.0027046, "INCLINATION": 99.4117, "RA_OF_ASC_NODE": 53.0411, "ARG_OF_PERICENTER": 37.6812, "MEAN_ANOMALY": 26.3892, "EPHEMERIS_TYPE": 0, "CLASSIFICATION_TYPE": "U", "NORAD_CAT_ID": 30707, "ELEMENT_SET_NO": 999, "REV_AT_EPOCH": 96961, "BSTAR": 0.0014639, "MEAN_MOTION_DOT": 3.51e-05, "MEAN_MOTION_DDOT": 0}, "tle": {"line1": "1 30707U 99025ARR 25357.83605807  .00003510  00000+0  14639-2 0  9994", "line2": "2 30707  99.4117  53.0411 0027046  37.6812  26.3892 14.26757696969614"}}, "geometry": {"type": "Point", "coordinates": [73.67637110637943, -61.51430923726327]}}, {"type": "Feature", "properties": {"norad_id": 30708, "name": "FENGYUN 1C DEB", "group": "fengyun-1c-debris", "lat": 1.0862164503574945, "lon": 13.525385511055452, "alt_km": 860.3637214067539, "timestamp": "2025-12-26T11:25:45.472401+00:00", "meta": {"OBJECT_NAME": "FENGYUN 1C DEB", "OBJECT_ID": "1999-025ARS", "EPOCH": "2025-12-25T23:48:56.385792", "MEAN_MOTION": 14.1218657, "ECCENTRICITY": 0.0008728, "INCLINATION": 98.6899, "RA_OF_ASC_NODE": 13.2225, "ARG_OF_PERICENTER": 157.2716, "MEAN_ANOMALY": 265.2706, "EPHEMERIS_TYPE": 0, "CLASSIFICATION_TYPE": "U", "NORAD_CAT_ID": 30708, "ELEMENT_SET_NO": 999, "REV_AT_EPOCH": 97023, "BSTAR": 0.00015728, "MEAN_MOTION_DOT": 2.46e-06, "MEAN_MOTION_DDOT": 0}, "tle": {"line1": "1 30708U 99025ARS 25359.99231928  .00000246  00000+0  15728-3 0  9997", "line2": "2 30708  98.6899  13.2225 0008728 157.2716 265.2706 14.12186570970232"}}, "geometry": {"type": "Point", "coordinates": [13.525385511055452, 1.0862164503574945]}}, {"type": "Feature", "properties": {"norad_id": 30709, "name": "FENGYUN 1C DEB", "group": "fengyun-1c-debris", "lat": -63.27971290247044, "lon": -2.504962732208743, "alt_km": 814.817480847486, "timestamp": "2025-12-26T11:25:45.472410+00:00", "meta": {"OBJECT_NAME": "FENGYUN 1C DEB", "OBJECT_ID": "1999-025ART", "EPOCH": "2025-12-25T22:11:00.306240", "MEAN_MOTION": 14.17603321, "ECCENTRICITY": 0.0081471, "INCLINATION": 99.1461, "RA_OF_ASC_NODE": 338.2622, "ARG_OF_PERICENTER": 232.4356, "MEAN_ANOMALY": 126.9398, "EPHEMERIS_TYPE": 0, "CLASSIFICATION_TYPE": "U", "NORAD_CAT_ID": 30709, "ELEMENT_SET_NO": 999, "REV_AT_EPOCH": 96183, "BSTAR": 0.002283, "MEAN_MOTION_DOT": 4.75e-05, "MEAN_MOTION_DDOT": 0}, "tle": {"line1": "1 30709U 99025ART 25359.92430910  .00004750  00000+0  22830-2 0  9998", "line2": "2 30709  99.1461 338.2622 0081471 232.4356 126.9398 14.17603321961836"}}, "geometry": {"type": "Point", "coordinates": [-2.504962732208743, -63.27971290247044]}}, {"type": "Feature", "properties": {"norad_id": 30710, "name": "FENGYUN 1C DEB", "group": "fengyun-1c-debris", "lat": 71.6273658118226, "lon": 117.80822280485938, "alt_km": 804.5764135894824, "timestamp": "2025-12-26T11:25:45.472419+00:00", "meta": {"OBJECT_NAME": "FENGYUN 1C DEB", "OBJECT_ID": "1999-025ARU", "EPOCH": "2025-12-24T22:51:42.149952", "MEAN_MOTION": 13.94248256, "ECCENTRICITY": 0.022521, "INCLINATION": 102.7466, "RA_OF_ASC_NODE": 252.7487, "ARG_OF_PERICENTER": 54.3132, "MEAN_ANOMALY": 322.8851, "EPHEMERIS_TYPE": 0, "CLASSIFICATION_TYPE": "U", "NORAD_CAT_ID": 30710, "ELEMENT_SET_NO": 999, "REV_AT_EPOCH": 94959, "BSTAR": 0.0028501, "MEAN_MOTION_DOT": 4.604e-05, "MEAN_MOTION_DDOT": 0}, "tle": {"line1": "1 30710U 99025ARU 25358.95257118  .00004604  00000+0  28501-2 0  9998", "line2": "2 30710 102.7466 252.7487 0225210  54.3132 322.8851 13.94248256949593"}}, "geometry": {"type": "Point", "coordinates": [117.80822280485938, 71.6273658118226]}}, {"type": "Feature", "properties": {"norad_id": 30714, "name": "FENGYUN 1C DEB", "group": "fengyun-1c-debris", "lat": 9.14003792588095, "lon": -129.9611359633107, "alt_km": 869.4927273287503, "timestamp": "2025-12-26T11:25:45.472429+00:00", "meta": {"OBJECT_NAME": "FENGYUN 1C DEB", "OBJECT_ID": "1999-025ARY", "EPOCH": "2025-12-26T02:19:15.864960", "MEAN_MOTION": 14.03308161, "ECCENTRICITY": 0.0067176, "INCLINATION": 98.8343, "RA_OF_ASC_NODE": 48.2366, "ARG_OF_PERICENTER": 244.7824, "MEAN_ANOMALY": 170.4011, "EPHEMERIS_TYPE": 0, "CLASSIFICATION_TYPE": "U", "NORAD_CAT_ID": 30714, "ELEMENT_SET_NO": 999, "REV_AT_EPOCH": 96180, "BSTAR": 0.00042231, "MEAN_MOTION_DOT": 6.29e-06, "MEAN_MOTION_DDOT": 0}, "tle": {"line1": "1 30714U 99025ARY 25360.09671140  .00000629  00000+0  42231-3 0  9995", "line2": "2 30714  98.8343  48.2366 0067176 244.7824 170.4011 14.03308161961804"}}, "geometry": {"type": "Point", "coordinates": [-129.9611359633107, 9.14003792588095]}}, {"type": "Feature", "properties": {"norad_id": 30715, "name": "FENGYUN 1C DEB", "group": "fengyun-1c-debris", "lat": -59.546935746571656, "lon": -125.87946116544481, "alt_km": 866.8684749852655, "timestamp": "2025-12-26T11:25:45.472438+00:00", "meta": {"OBJECT_NAME": "FENGYUN 1C DEB", "OBJECT_ID": "1999-025ARZ", "EPOCH": "2025-12-26T03:30:42.568128", "MEAN_MOTION": 14.14784311, "ECCENTRICITY": 0.0067211, "INCLINATION": 98.9752, "RA_OF_ASC_NODE": 69.382, "ARG_OF_PERICENTER": 131.1147, "MEAN_ANOMALY": 229.5854, "EPHEMERIS_TYPE": 0, "CLASSIFICATION_TYPE": "U", "NORAD_CAT_ID": 30715, "ELEMENT_SET_NO": 999, "REV_AT_EPOCH": 96371, "BSTAR": 0.0017246, "MEAN_MOTION_DOT": 3.354e-05, "MEAN_MOTION_DDOT": 0}, "tle": {"line1": "1 30715U 99025ARZ 25360.14632602  .00003354  00000+0  17246-2 0  9997", "line2": "2 30715  98.9752  69.3820 0067211 131.1147 229.5854 14.14784311963716"}}, "geometry": {"type": "Point", "coordinates": [-125.87946116544481, -59.546935746571656]}}]}